{
  "type": "FeatureCollection",
  "features": [
    {
      "type": "Feature",
      "properties": {
        "norad_id": 41599,
        "name": "CARTOSAT-2C",
        "group": "resource",
        "lat": -51.22838240666645,
        "lon": -137.75947372303557,
        "alt_km": 522.6957289075253,
        "timestamp": "2025-12-20T11:30:28.028453+00:00",
        "meta_object_name": "CARTOSAT-2C",
        "meta_object_id": "2016-040A",
        "meta_epoch": "2025-12-20T04:10:03.418752",
        "meta_mean_motion": 15.19176738,
        "meta_eccentricity": 0.0011016,
        "meta_inclination": 97.4763,
        "meta_ra_of_asc_node": 51.3479,
        "meta_arg_of_pericenter": 39.7637,
        "meta_mean_anomaly": 320.4403,
        "meta_ephemeris_type": 0,
        "meta_classification_type": "U",
        "meta_norad_cat_id": 41599,
        "meta_element_set_no": 999,
        "meta_rev_at_epoch": 52653,
        "meta_bstar": 0.00011567,
        "meta_mean_motion_dot": 2.367e-05,
        "meta_mean_motion_ddot": 0,
        "tle_line1": "1 41599U 16040A   25354.17365068  .00002367  00000+0  11567-3 0  9994",
        "tle_line2": "2 41599  97.4763  51.3479 0011016  39.7637 320.4403 15.19176738526534"
      },
      "geometry": {
        "type": "Point",
        "coordinates": [
          -137.75947372303557,
          -51.22838240666645
        ]
      }
    },
    {
      "type": "Feature",
      "properties": {
        "norad_id": 41601,
        "name": "SKYSAT-C1",
        "group": "resource",
        "lat": -58.595871972270885,
        "lon": 42.636281104799835,
        "alt_km": 474.1281798999926,
        "timestamp": "2025-12-20T11:30:28.028462+00:00",
        "meta_object_name": "SKYSAT-C1",
        "meta_object_id": "2016-040C",
        "meta_epoch": "2025-12-19T13:49:47.529120",
        "meta_mean_motion": 15.32708118,
        "meta_eccentricity": 0.000158,
        "meta_inclination": 96.9813,
        "meta_ra_of_asc_node": 30.2048,
        "meta_arg_of_pericenter": 351.0695,
        "meta_mean_anomaly": 9.052,
        "meta_ephemeris_type": 0,
        "meta_classification_type": "U",
        "meta_norad_cat_id": 41601,
        "meta_element_set_no": 999,
        "meta_rev_at_epoch": 53032,
        "meta_bstar": 0.00021842,
        "meta_mean_motion_dot": 6.827e-05,
        "meta_mean_motion_ddot": 0,
        "tle_line1": "1 41601U 16040C   25353.57624455  .00006827  00000+0  21842-3 0  9991",
        "tle_line2": "2 41601  96.9813  30.2048 0001580 351.0695   9.0520 15.32708118530325"
      },
      "geometry": {
        "type": "Point",
        "coordinates": [
          42.636281104799835,
          -58.595871972270885
        ]
      }
    },
    {
      "type": "Feature",
      "properties": {
        "norad_id": 41603,
        "name": "LAPAN-A3",
        "group": "resource",
        "lat": 54.05385301333838,
        "lon": -18.20418689314621,
        "alt_km": 468.2762324307532,
        "timestamp": "2025-12-20T11:30:28.028473+00:00",
        "meta_object_name": "LAPAN-A3",
        "meta_object_id": "2016-040E",
        "meta_epoch": "2025-12-20T04:59:52.577088",
        "meta_mean_motion": 15.31607533,
        "meta_eccentricity": 0.0008962,
        "meta_inclination": 97.1424,
        "meta_ra_of_asc_node": 351.4929,
        "meta_arg_of_pericenter": 303.5449,
        "meta_mean_anomaly": 56.4937,
        "meta_ephemeris_type": 0,
        "meta_classification_type": "U",
        "meta_norad_cat_id": 41603,
        "meta_element_set_no": 999,
        "meta_rev_at_epoch": 52740,
        "meta_bstar": 9.197e-05,
        "meta_mean_motion_dot": 2.736e-05,
        "meta_mean_motion_ddot": 0,
        "tle_line1": "1 41603U 16040E   25354.20824742  .00002736  00000+0  91970-4 0  9990",
        "tle_line2": "2 41603  97.1424 351.4929 0008962 303.5449  56.4937 15.31607533527405"
      },
      "geometry": {
        "type": "Point",
        "coordinates": [
          -18.20418689314621,
          54.05385301333838
        ]
      }
    },
    {
      "type": "Feature",
      "properties": {
        "norad_id": 41604,
        "name": "BIROS",
        "group": "resource",
        "lat": 80.35541831503065,
        "lon": -106.85368119647828,
        "alt_km": 285.65246609834503,
        "timestamp": "2025-12-20T11:30:28.028483+00:00",
        "meta_object_name": "BIROS",
        "meta_object_id": "2016-040F",
        "meta_epoch": "2025-12-20T02:03:19.975104",
        "meta_mean_motion": 15.92485133,
        "meta_eccentricity": 0.0003533,
        "meta_inclination": 97.0689,
        "meta_ra_of_asc_node": 25.8273,
        "meta_arg_of_pericenter": 132.86,
        "meta_mean_anomaly": 227.2973,
        "meta_ephemeris_type": 0,
        "meta_classification_type": "U",
        "meta_norad_cat_id": 41604,
        "meta_element_set_no": 999,
        "meta_rev_at_epoch": 52989,
        "meta_bstar": 0.00048138,
        "meta_mean_motion_dot": 0.00161911,
        "meta_mean_motion_ddot": 1.1712e-05,
        "tle_line1": "1 41604U 16040F   25354.08564786  .00161911  11712-4  48138-3 0  9991",
        "tle_line2": "2 41604  97.0689  25.8273 0003533 132.8600 227.2973 15.92485133529893"
      },
      "geometry": {
        "type": "Point",
        "coordinates": [
          -106.85368119647828,
          80.35541831503065
        ]
      }
    },
    {
      "type": "Feature",
      "properties": {
        "norad_id": 41727,
        "name": "GAOFEN-3",
        "group": "resource",
        "lat": -45.666868199984684,
        "lon": 171.24577189751,
        "alt_km": 758.7941530372636,
        "timestamp": "2025-12-20T11:30:28.028493+00:00",
        "meta_object_name": "GAOFEN-3",
        "meta_object_id": "2016-049A",
        "meta_epoch": "2025-12-20T03:48:06.490944",
        "meta_mean_motion": 14.42215353,
        "meta_eccentricity": 0.0001252,
        "meta_inclination": 98.4031,
        "meta_ra_of_asc_node": 359.6319,
        "meta_arg_of_pericenter": 58.3032,
        "meta_mean_anomaly": 301.828,
        "meta_ephemeris_type": 0,
        "meta_classification_type": "U",
        "meta_norad_cat_id": 41727,
        "meta_element_set_no": 999,
        "meta_rev_at_epoch": 49284,
        "meta_bstar": 2.3977e-05,
        "meta_mean_motion_dot": 3.6e-07,
        "meta_mean_motion_ddot": 0,
        "tle_line1": "1 41727U 16049A   25354.15840846  .00000036  00000+0  23977-4 0  9996",
        "tle_line2": "2 41727  98.4031 359.6319 0001252  58.3032 301.8280 14.42215353492844"
      },
      "geometry": {
        "type": "Point",
        "coordinates": [
          171.24577189751,
          -45.666868199984684
        ]
      }
    },
    {
      "type": "Feature",
      "properties": {
        "norad_id": 41771,
        "name": "SKYSAT-C4",
        "group": "resource",
        "lat": 33.7956377624992,
        "lon": -156.034719595181,
        "alt_km": 435.4447470237319,
        "timestamp": "2025-12-20T11:30:28.028503+00:00",
        "meta_object_name": "SKYSAT-C4",
        "meta_object_id": "2016-058B",
        "meta_epoch": "2025-12-20T01:32:08.920896",
        "meta_mean_motion": 15.42446541,
        "meta_eccentricity": 0.0002151,
        "meta_inclination": 96.936,
        "meta_ra_of_asc_node": 18.8961,
        "meta_arg_of_pericenter": 129.4309,
        "meta_mean_anomaly": 230.713,
        "meta_ephemeris_type": 0,
        "meta_classification_type": "U",
        "meta_norad_cat_id": 41771,
        "meta_element_set_no": 999,
        "meta_rev_at_epoch": 51780,
        "meta_bstar": 0.00023477,
        "meta_mean_motion_dot": 0.00010079,
        "meta_mean_motion_ddot": 0,
        "tle_line1": "1 41771U 16058B   25354.06399214  .00010079  00000+0  23477-3 0  9995",
        "tle_line2": "2 41771  96.9360  18.8961 0002151 129.4309 230.7130 15.42446541517808"
      },
      "geometry": {
        "type": "Point",
        "coordinates": [
          -156.034719595181,
          33.7956377624992
        ]
      }
    },
    {
      "type": "Feature",
      "properties": {
        "norad_id": 41772,
        "name": "SKYSAT-C5",
        "group": "resource",
        "lat": -10.795565914339003,
        "lon": -143.4487548374865,
        "alt_km": 467.19055176279653,
        "timestamp": "2025-12-20T11:30:28.028513+00:00",
        "meta_object_name": "SKYSAT-C5",
        "meta_object_id": "2016-058C",
        "meta_epoch": "2025-12-20T02:51:02.337120",
        "meta_mean_motion": 15.34000367,
        "meta_eccentricity": 0.0003783,
        "meta_inclination": 97.0747,
        "meta_ra_of_asc_node": 37.5626,
        "meta_arg_of_pericenter": 257.0702,
        "meta_mean_anomaly": 103.0119,
        "meta_ephemeris_type": 0,
        "meta_classification_type": "U",
        "meta_norad_cat_id": 41772,
        "meta_element_set_no": 999,
        "meta_rev_at_epoch": 51629,
        "meta_bstar": 0.00019531,
        "meta_mean_motion_dot": 6.351e-05,
        "meta_mean_motion_ddot": 0,
        "tle_line1": "1 41772U 16058C   25354.11877705  .00006351  00000+0  19531-3 0  9992",
        "tle_line2": "2 41772  97.0747  37.5626 0003783 257.0702 103.0119 15.34000367516297"
      },
      "geometry": {
        "type": "Point",
        "coordinates": [
          -143.4487548374865,
          -10.795565914339003
        ]
      }
    }
  ]
}